{
  "norad_id": 61002,
  "name": "STARLINK-11288 [DTC]",
  "history": [
    {
      "epoch": "2026-03-28T16:58:16.291200Z",
      "apogee_km": 359.81014667926775,
      "perigee_km": 359.4356619837845,
      "latitude_deg": 1.8749329397778842e-05,
      "longitude_deg": 106.66531602784337,
      "height_km": 360.67922411806325,
      "semi_major_axis_km": 6737.759904331526,
      "eccentricity": 2.779e-05,
      "inclination_deg": 53.1595,
      "raan_deg": 187.3569,
      "arg_perigee_deg": 139.1007,
      "mean_anomaly_deg": 221.0032,
      "mean_motion_rev_day": 15.6974629
    }
  ]
}